CCSDS_OMM_VERS = 2.0
CREATION_DATE  = 
ORIGINATOR     = 

OBJECT_NAME    = XRISM
OBJECT_ID      = 2023-137A
CENTER_NAME    = EARTH
REF_FRAME      = TEME
TIME_SYSTEM    = UTC
MEAN_ELEMENT_THEORY = SGP/SGP4

EPOCH          = 2026-03-26T14:39:56.372832
MEAN_MOTION    = 15.11688606
ECCENTRICITY   = .00079383
INCLINATION    = 31.0013
RA_OF_ASC_NODE = 174.1979
ARG_OF_PERICENTER = 209.6422
MEAN_ANOMALY   = 150.3768

EPHEMERIS_TYPE = 0
CLASSIFICATION_TYPE = U
NORAD_CAT_ID   = 57800
ELEMENT_SET_NO = 999
REV_AT_EPOCH   = 14035
BSTAR          = .3234108E-3
MEAN_MOTION_DOT = .5744E-4
MEAN_MOTION_DDOT = 0

CCSDS_OMM_VERS = 2.0
CREATION_DATE  = 
ORIGINATOR     = 

OBJECT_NAME    = ACS3
OBJECT_ID      = 2024-077B
CENTER_NAME    = EARTH
REF_FRAME      = TEME
TIME_SYSTEM    = UTC
MEAN_ELEMENT_THEORY = SGP/SGP4

EPOCH          = 2026-03-27T06:40:05.155680
MEAN_MOTION    = 13.90414475
ECCENTRICITY   = .00719456
INCLINATION    = 97.1972
RA_OF_ASC_NODE = 23.4361
ARG_OF_PERICENTER = 36.1211
MEAN_ANOMALY   = 324.4783

EPHEMERIS_TYPE = 0
CLASSIFICATION_TYPE = U
NORAD_CAT_ID   = 59588
ELEMENT_SET_NO = 999
REV_AT_EPOCH   = 9664
BSTAR          = .22178553E-1
MEAN_MOTION_DOT = .2819E-3
MEAN_MOTION_DDOT = 0

CCSDS_OMM_VERS = 2.0
CREATION_DATE  = 
ORIGINATOR     = 

OBJECT_NAME    = SZ-21 MODULE
OBJECT_ID      = 2025-246C
CENTER_NAME    = EARTH
REF_FRAME      = TEME
TIME_SYSTEM    = UTC
MEAN_ELEMENT_THEORY = SGP/SGP4

EPOCH          = 2026-03-27T07:41:12.122880
MEAN_MOTION    = 15.69886344
ECCENTRICITY   = .00013734
INCLINATION    = 41.4743
RA_OF_ASC_NODE = 94.7188
ARG_OF_PERICENTER = 209.1832
MEAN_ANOMALY   = 150.8934

EPHEMERIS_TYPE = 0
CLASSIFICATION_TYPE = U
NORAD_CAT_ID   = 66515
ELEMENT_SET_NO = 999
REV_AT_EPOCH   = 2084
BSTAR          = .30508676E-3
MEAN_MOTION_DOT = .37451E-3
MEAN_MOTION_DDOT = 0

